NORAD_CAT_ID,OBJECT_NAME,OBJECT_TYPE,EPOCH,MEAN_MOTION,ECCENTRICITY,INCLINATION,RA_OF_ASC_NODE,ARG_OF_PERICENTER,MEAN_ANOMALY,BSTAR,MEAN_MOTION_DOT,MEAN_MOTION_DDOT,TLE_LINE0,TLE_LINE1,TLE_LINE2,SEMIMAJOR_AXIS,PERIOD,APOGEE,PERIGEE,DECAYED
50841.0,STARLINK-3300,PAYLOAD,2022-04-20 22:00:00,15.08848361,0.0002149,53.2162,68.235,42.3451,77.4366,-0.0015860999999999,-0.00025449,0.0,0 STARLINK-3300,1 50841U 22001AQ  22110.91667824 -.00025449  00000-0 -15861-2 0  9991,2 50841  53.2162  68.2350 0002149  42.3451  77.4366 15.08848361  3592,6917.855,95.437,541.206,538.2330000000002,0.0
50841.0,STARLINK-3300,PAYLOAD,2022-04-21 14:00:01,15.08848056,0.0002165,53.2161,65.2429,39.5308,103.4274,-0.0010479,-0.00016931,0.0,0 STARLINK-3300,1 50841U 22001AQ  22111.58334491 -.00016931  00000-0 -10479-2 0  9992,2 50841  53.2161  65.2429 0002165  39.5308 103.4274 15.08848056  3603,6917.856,95.437,541.2180000000002,538.2230000000002,0.0
50841.0,STARLINK-3300,PAYLOAD,2022-04-21 22:00:00,15.08859253,0.0002065,53.2164,63.7461,42.423,112.1404,-0.0013439,-0.00021624,0.0,0 STARLINK-3300,1 50841U 22001AQ  22111.91667824 -.00021624  00000-0 -13439-2 0  9992,2 50841  53.2164  63.7461 0002065  42.4230 112.1404 15.08859253  3592,6917.821999999999,95.436,541.115,538.258,0.0
50841.0,STARLINK-3300,PAYLOAD,2022-04-22 14:00:01,15.08866953,0.0002041,53.2159,60.7536,39.181,138.5781,-0.0035436,-0.00056287,0.0,0 STARLINK-3300,1 50841U 22001AQ  22112.58334491 -.00056287  00000-0 -35436-2 0  9991,2 50841  53.2159  60.7536 0002041  39.1810 138.5781 15.08866953  3604,6917.7980000000025,95.436,541.075,538.251,0.0
50841.0,STARLINK-3300,PAYLOAD,2022-04-22 22:00:00,15.08844056,0.0002004,53.2162,59.2572,42.5693,146.7953,-0.0024046,-0.00038359,0.0,0 STARLINK-3300,1 50841U 22001AQ  22112.91667824 -.00038359  00000-0 -24046-2 0  9992,2 50841  53.2162  59.2572 0002004  42.5693 146.7953 15.08844056 17671,6917.868,95.437,541.119,538.347,0.0
50841.0,STARLINK-3300,PAYLOAD,2022-04-23 14:00:01,15.08829013,0.0002054,53.2156,56.2643,42.2139,170.3031,0.00050101,7.692e-05,0.0,0 STARLINK-3300,1 50841U 22001AQ  22113.58334491  .00007692  00000-0  50101-3 0  9993,2 50841  53.2156  56.2643 0002054  42.2139 170.3031 15.08829013 17785,6917.9140000000025,95.438,541.2,538.3580000000002,0.0
50841.0,STARLINK-3300,PAYLOAD,2022-04-24 14:00:01,15.08849354,0.0001941,53.2152,51.7749,42.0968,205.2268,-8.578299999999999e-05,-1.654e-05,0.0,0 STARLINK-3300,1 50841U 22001AQ  22114.58334491 -.00001654  00000-0 -85783-4 0  9993,2 50841  53.2152  51.7749 0001941  42.0968 205.2268 15.08849354  3594,6917.852,95.437,541.06,538.374,0.0
50841.0,STARLINK-3300,PAYLOAD,2022-04-24 22:00:00,15.0885649,0.0001916,53.2153,50.2789,42.8455,216.0745,-0.0024493,-0.00039076,0.0,0 STARLINK-3300,1 50841U 22001AQ  22114.91667824 -.00039076  00000-0 -24493-2 0  9997,2 50841  53.2153  50.2789 0001916  42.8455 216.0745 15.08856490 17981,6917.83,95.437,541.02,538.37,0.0
50841.0,STARLINK-3300,PAYLOAD,2022-04-25 14:00:01,15.08826281,0.0001897,53.2152,47.2855,39.8659,242.227,-0.00049948,-8.226e-05,0.0,0 STARLINK-3300,1 50841U 22001AQ  22115.58334491 -.00008226  00000-0 -49948-3 0  9998,2 50841  53.2152  47.2855 0001897  39.8659 242.2270 15.08826281 18081,6917.922,95.438,541.1,538.475,0.0
50841.0,STARLINK-3300,PAYLOAD,2022-04-25 22:00:00,15.08829176,0.0001994,53.2154,45.7894,44.2204,249.4488,-0.00093343,-0.00015109,0.0,0 STARLINK-3300,1 50841U 22001AQ  22115.91667824 -.00015109  00000-0 -93343-3 0  9990,2 50841  53.2154  45.7894 0001994  44.2204 249.4488 15.08829176  3601,6917.913000000001,95.438,541.158,538.399,0.0
50841.0,STARLINK-3300,PAYLOAD,2022-04-26 14:00:01,15.08812699,0.0001989,53.2156,42.79600000000001,40.3413,276.5929,0.0022558,0.00035769,0.0,0 STARLINK-3300,1 50841U 22001AQ  22116.58335648  .00035769  00000-0  22558-2 0  9991,2 50841  53.2156  42.7960 0001989  40.3413 276.5929 15.08812699 18235,6917.964,95.439,541.205,538.453,0.0
50841.0,STARLINK-3300,PAYLOAD,2022-04-26 22:00:00,15.08870563,0.0001997,53.216,41.3002,40.8595,287.5819,-0.0034332,-0.00054561,0.0,0 STARLINK-3300,1 50841U 22001AQ  22116.91667824 -.00054561  00000-0 -34332-2 0  9998,2 50841  53.2160  41.3002 0001997  40.8595 287.5819 15.08870563  3572,6917.7869999999975,95.436,541.033,538.27,0.0
50841.0,STARLINK-3300,PAYLOAD,2022-04-27 06:00:00,15.08804704,0.0002143,53.2159,39.805,35.4121,304.6433,0.0037335,0.00059576,0.0,0 STARLINK-3300,1 50841U 22001AQ  22117.25001157  .00059576  00000-0  37335-2 0  9992,2 50841  53.2159  39.8050 0002143  35.4121 304.6433 15.08804704 18331,6917.988,95.44,541.336,538.371,0.0
50841.0,STARLINK-3300,PAYLOAD,2022-04-27 14:00:01,15.08835186,0.0001918,53.2163,38.3067,37.9617,313.7441,-0.00015716,-2.788e-05,0.0,0 STARLINK-3300,1 50841U 22001AQ  22117.58335648 -.00002788  00000-0 -15716-3 0  9998,2 50841  53.2163  38.3067 0001918  37.9617 313.7441 15.08835186  3594,6917.895,95.438,541.087,538.433,0.0
50841.0,STARLINK-3300,PAYLOAD,2022-04-27 22:00:00,15.08844963,0.000196,53.2167,36.811,37.5303,325.6964,-0.00058436,-9.578e-05,0.0,0 STARLINK-3300,1 50841U 22001AQ  22117.91667824 -.00009578  00000-0 -58436-3 0  9999,2 50841  53.2167  36.8110 0001960  37.5303 325.6964 15.08844963 18439,6917.865,95.437,541.086,538.374,0.0
50841.0,STARLINK-3300,PAYLOAD,2022-04-28 14:00:01,15.0883128,0.0001827,53.2168,33.8176,35.798,350.664,0.0026608,0.00042303,0.0,0 STARLINK-3300,1 50841U 22001AQ  22118.58334491  .00042303  00000-0  26608-2 0  9990,2 50841  53.2168  33.8176 0001827  35.7980 350.6640 15.08831280 18530,6917.906999999997,95.438,541.036,538.508,0.0
50841.0,STARLINK-3300,PAYLOAD,2022-04-29 06:00:00,15.08822987,0.0002099,53.2168,30.8267,33.8739,15.806,0.00061914,9.575e-05,0.0,0 STARLINK-3300,1 50841U 22001AQ  22119.25001157  .00009575  00000-0  61914-3 0  9999,2 50841  53.2168  30.8267 0002099  33.8739  15.8060 15.08822987 18632,6917.932,95.439,541.249,538.345,0.0
50841.0,STARLINK-3300,PAYLOAD,2022-04-29 14:00:01,15.08811855,0.0001929,53.217,29.3286,40.7627,20.503,0.0011017999999999,0.00017277,0.0,0 STARLINK-3300,1 50841U 22001AQ  22119.58334491  .00017277  00000-0  11018-2 0  9992,2 50841  53.2170  29.3286 0001929  40.7627  20.5030 15.08811855  3606,6917.965999999999,95.439,541.1659999999998,538.497,0.0
50841.0,STARLINK-3300,PAYLOAD,2022-04-29 22:00:00,15.08828414,0.0002073,53.2172,27.8334,41.9868,30.8404,-0.00077237,-0.00012556,0.0,0 STARLINK-3300,1 50841U 22001AQ  22119.91667824 -.00012556  00000-0 -77237-3 0  9991,2 50841  53.2172  27.8334 0002073  41.9868  30.8404 15.08828414  3604,6917.916,95.438,541.215,538.347,0.0
50841.0,STARLINK-3300,PAYLOAD,2022-04-30 06:00:00,15.088176999999998,0.0002147,53.2167,26.3379,37.3306,47.0736,0.00057616,8.888e-05,0.0,0 STARLINK-3300,1 50841U 22001AQ  22120.25001157  .00008888  00000-0  57616-3 0  9991,2 50841  53.2167  26.3379 0002147  37.3306  47.0736 15.08817700 18788,6917.949000000001,95.439,541.299,538.328,0.0
50841.0,STARLINK-3300,PAYLOAD,2022-04-30 14:00:01,15.08793204,0.0001914,53.2168,24.8399,41.3359,54.6424,0.0039433,0.0006295,0.0,0 STARLINK-3300,1 50841U 22001AQ  22120.58334491  .00062950  00000-0  39433-2 0  9993,2 50841  53.2168  24.8399 0001914  41.3359  54.6424 15.08793204  3579,6918.023,95.441,541.2130000000002,538.564,0.0
50841.0,STARLINK-3300,PAYLOAD,2022-04-30 22:00:00,15.08855783,0.0002031,53.2167,23.3449,40.732,66.8048,-0.0028226,-0.0004495,0.0,0 STARLINK-3300,1 50841U 22001AQ  22120.91667824 -.00044950  00000-0 -28226-2 0  9999,2 50841  53.2167  23.3449 0002031  40.7320  66.8048 15.08855783  3578,6917.831999999999,95.437,541.102,538.2919999999998,0.0
50841.0,STARLINK-3300,PAYLOAD,2022-05-01 14:00:01,15.08817027,0.0001896,53.2162,20.3511,42.1957,88.5142,0.0010899,0.00017089,0.0,0 STARLINK-3300,1 50841U 22001AQ  22121.58334491  .00017089  00000-0  10899-2 0  9992,2 50841  53.2162  20.3511 0001896  42.1957  88.5142 15.08817027 18986,6917.951,95.439,541.127,538.504,0.0
50841.0,STARLINK-3300,PAYLOAD,2022-05-01 22:00:01,15.08822316,0.0002107,53.2161,18.8561,43.4016,98.9467,-0.00089373,-0.00014477,0.0,0 STARLINK-3300,1 50841U 22001AQ  22121.91668981 -.00014477  00000-0 -89373-3 0  9997,2 50841  53.2161  18.8561 0002107  43.4016  98.9467 15.08822316  3568,6917.934,95.439,541.257,538.342,0.0
50841.0,STARLINK-3300,PAYLOAD,2022-05-02 06:00:00,15.088204500000002,0.0002186,53.2157,17.3602,40.6818,113.1693,0.0012315,0.00019355,0.0,0 STARLINK-3300,1 50841U 22001AQ  22122.25001157  .00019355  00000-0  12315-2 0  9990,2 50841  53.2157  17.3602 0002186  40.6818 113.1693 15.08820450 19081,6917.94,95.439,541.317,538.293,0.0
50841.0,STARLINK-3300,PAYLOAD,2022-05-02 14:00:01,15.0881172,0.0002017,53.2156,15.8621,45.9047,119.5313,0.0032431,0.00051665,0.0,0 STARLINK-3300,1 50841U 22001AQ  22122.58334491  .00051665  00000-0  32431-2 0  9997,2 50841  53.2156  15.8621 0002017  45.9047 119.5313 15.08811720  3609,6917.967,95.439,541.227,538.436,0.0
50841.0,STARLINK-3300,PAYLOAD,2022-05-02 22:00:01,15.08850645,0.000217,53.2157,14.3671,44.6615,132.4189,-0.00071799,-0.00011701,0.0,0 STARLINK-3300,1 50841U 22001AQ  22122.91668981 -.00011701  00000-0 -71799-3 0  9998,2 50841  53.2157  14.3671 0002170  44.6615 132.4189 15.08850645  3600,6917.848000000001,95.437,541.214,538.212,0.0
50841.0,STARLINK-3300,PAYLOAD,2022-05-03 14:00:01,15.088150199999998,0.0002018,53.2154,11.3727,45.1312,155.1027,0.0031178,0.00049648,0.0,0 STARLINK-3300,1 50841U 22001AQ  22123.58334491  .00049648  00000-0  31178-2 0  9993,2 50841  53.2154  11.3727 0002018  45.1312 155.1027 15.08815020 19290,6917.956999999999,95.439,541.2180000000002,538.4259999999998,0.0
50841.0,STARLINK-3300,PAYLOAD,2022-05-03 22:00:00,15.08852089,0.0002186,53.2156,9.8779,43.4587,168.3626,-0.00043298,-7.175e-05,0.0,0 STARLINK-3300,1 50841U 22001AQ  22123.91667824 -.00007175  00000-0 -43298-3 0  9997,2 50841  53.2156   9.8779 0002186  43.4587 168.3626 15.08852089  3607,6917.843000000003,95.437,541.221,538.196,0.0
